start=new Date('2022-04-27T00:00:00.000Z').valueOf();
sats=[{"CENTER_NAME":"EARTH","SITE":"AFETR","MEAN_ANOMALY":"298.9209","ECCENTRICITY":"0.00014960","LAUNCH_DATE":"2021-03-04","OBJECT_ID":"2021-017A","BSTAR":"0.00010291000000","INCLINATION":"53.0552","FILE":"3417035","APOAPSIS":"548.246","ELEMENT_SET_NO":"999","RA_OF_ASC_NODE":"61.4824","REF_FRAME":"TEME","RCS_SIZE":"LARGE","CLASSIFICATION_TYPE":"U","COUNTRY_CODE":"US","PERIAPSIS":"546.174","PERIOD":"95.592","ARG_OF_PERICENTER":"61.1930","TLE_LINE1":"1 47722U 21017A   22116.32228362  .00001252  00000-0  10291-3 0  9999","NORAD_CAT_ID":"47722","GP_ID":"202074342","MEAN_ELEMENT_THEORY":"SGP4","OBJECT_TYPE":"PAYLOAD","OBJECT_NAME":"STARLINK-2068","TLE_LINE2":"2 47722  53.0552  61.4824 0001496  61.1930 298.9209 15.06401186 64965","REV_AT_EPOCH":"6496","MEAN_MOTION":"15.06401186","MEAN_MOTION_DOT":"0.00001252","MEAN_MOTION_DDOT":"0.0000000000000","EPHEMERIS_TYPE":"0","EPOCH":"2022-04-26T07:44:05.304768","TIME_SYSTEM":"UTC","DECAY_DATE":null,"SEMIMAJOR_AXIS":"6925.345"},{"SEMIMAJOR_AXIS":"6925.339","DECAY_DATE":null,"TIME_SYSTEM":"UTC","EPOCH":"2022-04-26T21:12:53.085600","EPHEMERIS_TYPE":"0","MEAN_MOTION_DDOT":"0.0000000000000","MEAN_MOTION_DOT":"0.00000994","MEAN_MOTION":"15.06403010","REV_AT_EPOCH":"6592","TLE_LINE2":"2 47723  53.0555 353.9626 0001544  77.2099 282.9063 15.06403010 65922","OBJECT_NAME":"STARLINK-2107","OBJECT_TYPE":"PAYLOAD","GP_ID":"202110506","MEAN_ELEMENT_THEORY":"SGP4","TLE_LINE1":"1 47723U 21017B   22116.88394775  .00000994  00000-0  85598-4 0  9998","NORAD_CAT_ID":"47723","ARG_OF_PERICENTER":"77.2099","PERIOD":"95.592","COUNTRY_CODE":"US","PERIAPSIS":"546.135","CLASSIFICATION_TYPE":"U","RCS_SIZE":"LARGE","REF_FRAME":"TEME","RA_OF_ASC_NODE":"353.9626","ELEMENT_SET_NO":"999","APOAPSIS":"548.274","FILE":"3417474","INCLINATION":"53.0555","BSTAR":"0.00008559800000","OBJECT_ID":"2021-017B","LAUNCH_DATE":"2021-03-04","MEAN_ANOMALY":"282.9063","ECCENTRICITY":"0.00015440","SITE":"AFETR","CENTER_NAME":"EARTH"},{"MEAN_ELEMENT_THEORY":"SGP4","GP_ID":"202087614","TLE_LINE1":"1 47724U 21017C   22116.92081320  .00005406  00000-0  38151-3 0  9998","NORAD_CAT_ID":"47724","PERIOD":"95.592","ARG_OF_PERICENTER":"73.2358","MEAN_MOTION":"15.06403665","REV_AT_EPOCH":"6527","TLE_LINE2":"2 47724  53.0544 353.7927 0001616  73.2358 286.8808 15.06403665 65271","OBJECT_NAME":"STARLINK-2116","OBJECT_TYPE":"PAYLOAD","EPHEMERIS_TYPE":"0","MEAN_MOTION_DDOT":"0.0000000000000","MEAN_MOTION_DOT":"0.00005406","SEMIMAJOR_AXIS":"6925.337","DECAY_DATE":null,"TIME_SYSTEM":"UTC","EPOCH":"2022-04-26T22:05:58.260480","SITE":"AFETR","CENTER_NAME":"EARTH","FILE":"3417410","APOAPSIS":"548.321","INCLINATION":"53.0544","BSTAR":"0.00038151000000","OBJECT_ID":"2021-017C","LAUNCH_DATE":"2021-03-04","ECCENTRICITY":"0.00016160","MEAN_ANOMALY":"286.8808","RA_OF_ASC_NODE":"353.7927","ELEMENT_SET_NO":"999","PERIAPSIS":"546.083","COUNTRY_CODE":"US","RCS_SIZE":"LARGE","CLASSIFICATION_TYPE":"U","REF_FRAME":"TEME"},{"TLE_LINE2":"2 47725  53.0553  65.4281 0001744  48.8684 311.2455 15.06387515 64246","REV_AT_EPOCH":"6424","MEAN_MOTION":"15.06387515","OBJECT_TYPE":"PAYLOAD","OBJECT_NAME":"STARLINK-2125","MEAN_ELEMENT_THEORY":"SGP4","GP_ID":"202082973","PERIOD":"95.593","ARG_OF_PERICENTER":"48.8684","NORAD_CAT_ID":"47725","TLE_LINE1":"1 47725U 21017D   22116.55682967  .00000930  00000-0  81341-4 0  9999","TIME_SYSTEM":"UTC","DECAY_DATE":null,"SEMIMAJOR_AXIS":"6925.387","EPOCH":"2022-04-26T13:21:50.083488","MEAN_MOTION_DDOT":"0.0000000000000","EPHEMERIS_TYPE":"0","MEAN_MOTION_DOT":"0.00000930","INCLINATION":"53.0553","BSTAR":"0.00008134100000","APOAPSIS":"548.460","FILE":"3417246","MEAN_ANOMALY":"311.2455","ECCENTRICITY":"0.00017440","LAUNCH_DATE":"2021-03-04","OBJECT_ID":"2021-017D","SITE":"AFETR","CENTER_NAME":"EARTH","RCS_SIZE":"LARGE","CLASSIFICATION_TYPE":"U","PERIAPSIS":"546.044","COUNTRY_CODE":"US","REF_FRAME":"TEME","ELEMENT_SET_NO":"999","RA_OF_ASC_NODE":"65.4281"},{"LAUNCH_DATE":"2021-03-04","MEAN_ANOMALY":"300.5224","ECCENTRICITY":"0.00017270","OBJECT_ID":"2021-017E","INCLINATION":"53.0557","BSTAR":"0.00005496100000","FILE":"3417035","APOAPSIS":"548.413","CENTER_NAME":"EARTH","SITE":"AFETR","REF_FRAME":"TEME","PERIAPSIS":"546.021","COUNTRY_CODE":"US","CLASSIFICATION_TYPE":"U","RCS_SIZE":"MEDIUM","ELEMENT_SET_NO":"999","RA_OF_ASC_NODE":"66.6766","OBJECT_TYPE":"PAYLOAD","OBJECT_NAME":"STARLINK-2126","TLE_LINE2":"2 47726  53.0557  66.6766 0001727  59.5935 300.5224 15.06398857 64821","MEAN_MOTION":"15.06398857","REV_AT_EPOCH":"6482","TLE_LINE1":"1 47726U 21017E   22116.27669161  .00000537  00000-0  54961-4 0  9991","NORAD_CAT_ID":"47726","ARG_OF_PERICENTER":"59.5935","PERIOD":"95.592","MEAN_ELEMENT_THEORY":"SGP4","GP_ID":"202074843","EPOCH":"2022-04-26T06:38:26.155104","TIME_SYSTEM":"UTC","SEMIMAJOR_AXIS":"6925.352","DECAY_DATE":null,"MEAN_MOTION_DOT":"0.00000537","MEAN_MOTION_DDOT":"0.0000000000000","EPHEMERIS_TYPE":"0"},{"OBJECT_ID":"2021-017F","MEAN_ANOMALY":"301.8733","ECCENTRICITY":"0.00016160","LAUNCH_DATE":"2021-03-04","FILE":"3417474","APOAPSIS":"548.328","INCLINATION":"53.0563","BSTAR":"0.00008304800000","CENTER_NAME":"EARTH","SITE":"AFETR","REF_FRAME":"TEME","RCS_SIZE":"LARGE","CLASSIFICATION_TYPE":"U","PERIAPSIS":"546.089","COUNTRY_CODE":"US","RA_OF_ASC_NODE":"343.9276","ELEMENT_SET_NO":"999","OBJECT_NAME":"STARLINK-2129","OBJECT_TYPE":"PAYLOAD","REV_AT_EPOCH":"6607","MEAN_MOTION":"15.06401640","TLE_LINE2":"2 47727  53.0563 343.9276 0001616  58.2414 301.8733 15.06401640 66074","PERIOD":"95.592","ARG_OF_PERICENTER":"58.2414","NORAD_CAT_ID":"47727","TLE_LINE1":"1 47727U 21017F   22116.89130237  .00000956  00000-0  83048-4 0  9990","MEAN_ELEMENT_THEORY":"SGP4","GP_ID":"202111007","EPOCH":"2022-04-26T21:23:28.524768","DECAY_DATE":null,"SEMIMAJOR_AXIS":"6925.344","TIME_SYSTEM":"UTC","MEAN_MOTION_DOT":"0.00000956","MEAN_MOTION_DDOT":"0.0000000000000","EPHEMERIS_TYPE":"0"},{"CENTER_NAME":"EARTH","SITE":"AFETR","ECCENTRICITY":"0.00016010","MEAN_ANOMALY":"307.6626","LAUNCH_DATE":"2021-03-04","OBJECT_ID":"2021-017G","BSTAR":"0.00011275000000","INCLINATION":"53.0563","FILE":"3417035","APOAPSIS":"548.326","ELEMENT_SET_NO":"999","RA_OF_ASC_NODE":"67.1015","REF_FRAME":"TEME","RCS_SIZE":"LARGE","CLASSIFICATION_TYPE":"U","PERIAPSIS":"546.108","COUNTRY_CODE":"US","PERIOD":"95.592","ARG_OF_PERICENTER":"52.4508","TLE_LINE1":"1 47728U 21017G   22116.18454232  .00001398  00000-0  11275-3 0  9990","NORAD_CAT_ID":"47728","GP_ID":"202075345","MEAN_ELEMENT_THEORY":"SGP4","OBJECT_TYPE":"PAYLOAD","OBJECT_NAME":"STARLINK-2131","TLE_LINE2":"2 47728  53.0563  67.1015 0001601  52.4508 307.6626 15.06398888 64875","REV_AT_EPOCH":"6487","MEAN_MOTION":"15.06398888","MEAN_MOTION_DOT":"0.00001398","EPHEMERIS_TYPE":"0","MEAN_MOTION_DDOT":"0.0000000000000","EPOCH":"2022-04-26T04:25:44.456448","TIME_SYSTEM":"UTC","DECAY_DATE":null,"SEMIMAJOR_AXIS":"6925.352"},{"LAUNCH_DATE":"2021-03-04","ECCENTRICITY":"0.00013970","MEAN_ANOMALY":"283.4360","OBJECT_ID":"2021-017H","BSTAR":"0.00031902000000","INCLINATION":"53.0565","FILE":"3417474","APOAPSIS":"548.158","CENTER_NAME":"EARTH","SITE":"AFETR","REF_FRAME":"TEME","PERIAPSIS":"546.223","COUNTRY_CODE":"US","RCS_SIZE":"LARGE","CLASSIFICATION_TYPE":"U","ELEMENT_SET_NO":"999","RA_OF_ASC_NODE":"9.0675","OBJECT_TYPE":"PAYLOAD","OBJECT_NAME":"STARLINK-2132","TLE_LINE2":"2 47729  53.0565   9.0675 0001397  76.6785 283.4360 15.06407467 65682","MEAN_MOTION":"15.06407467","REV_AT_EPOCH":"6568","NORAD_CAT_ID":"47729","TLE_LINE1":"1 47729U 21017H   22116.85766632  .00004474  00000-0  31902-3 0  9992","ARG_OF_PERICENTER":"76.6785","PERIOD":"95.592","GP_ID":"202110006","MEAN_ELEMENT_THEORY":"SGP4","EPOCH":"2022-04-26T20:35:02.370048","TIME_SYSTEM":"UTC","SEMIMAJOR_AXIS":"6925.326","DECAY_DATE":null,"MEAN_MOTION_DOT":"0.00004474","EPHEMERIS_TYPE":"0","MEAN_MOTION_DDOT":"0.0000000000000"},{"CLASSIFICATION_TYPE":"U","RCS_SIZE":"LARGE","COUNTRY_CODE":"US","PERIAPSIS":"545.842","REF_FRAME":"TEME","ELEMENT_SET_NO":"999","RA_OF_ASC_NODE":"81.4068","BSTAR":"0.00008208300000","INCLINATION":"53.0560","APOAPSIS":"548.626","FILE":"3417035","MEAN_ANOMALY":"315.1060","ECCENTRICITY":"0.00020100","LAUNCH_DATE":"2021-03-04","OBJECT_ID":"2021-017J","SITE":"AFETR","CENTER_NAME":"EARTH","TIME_SYSTEM":"UTC","DECAY_DATE":null,"SEMIMAJOR_AXIS":"6925.369","EPOCH":"2022-04-26T08:07:58.556352","MEAN_MOTION_DDOT":"0.0000000000000","EPHEMERIS_TYPE":"0","MEAN_MOTION_DOT":"0.00000941","TLE_LINE2":"2 47730  53.0560  81.4068 0002010  45.0091 315.1060 15.06393271 64633","REV_AT_EPOCH":"6463","MEAN_MOTION":"15.06393271","OBJECT_TYPE":"PAYLOAD","OBJECT_NAME":"STARLINK-2140","GP_ID":"202074343","MEAN_ELEMENT_THEORY":"SGP4","ARG_OF_PERICENTER":"45.0091","PERIOD":"95.593","TLE_LINE1":"1 47730U 21017J   22116.33887218  .00000941  00000-0  82083-4 0  9993","NORAD_CAT_ID":"47730"},{"CENTER_NAME":"EARTH","SITE":"AFETR","ECCENTRICITY":"0.00020820","MEAN_ANOMALY":"315.3113","LAUNCH_DATE":"2021-03-04","OBJECT_ID":"2021-017K","BSTAR":"0.00021686000000","INCLINATION":"53.0552","APOAPSIS":"548.648","FILE":"3417474","ELEMENT_SET_NO":"999","RA_OF_ASC_NODE":"74.2889","REF_FRAME":"TEME","RCS_SIZE":"LARGE","CLASSIFICATION_TYPE":"U","PERIAPSIS":"545.764","COUNTRY_CODE":"US","PERIOD":"95.592","ARG_OF_PERICENTER":"44.8044","TLE_LINE1":"1 47731U 21017K   22116.81023144  .00002950  00000-0  21686-3 0  9990","NORAD_CAT_ID":"47731","MEAN_ELEMENT_THEORY":"SGP4","GP_ID":"202110507","OBJECT_TYPE":"PAYLOAD","OBJECT_NAME":"STARLINK-2141","TLE_LINE2":"2 47731  53.0552  74.2889 0002082  44.8044 315.3113 15.06402381 64780","REV_AT_EPOCH":"6478","MEAN_MOTION":"15.06402381","MEAN_MOTION_DOT":"0.00002950","MEAN_MOTION_DDOT":"0.0000000000000","EPHEMERIS_TYPE":"0","EPOCH":"2022-04-26T19:26:43.996416","TIME_SYSTEM":"UTC","DECAY_DATE":null,"SEMIMAJOR_AXIS":"6925.341"}];
